#cP2016  9 26  0  0  0.00000000      96 ORBIT IGb08 HLM  IGS
## 1916  86400.00000000   900.00000000 57657 0.0000000000000
+   32   G01G02G03G04G05G06G07G08G09G10G11G12G13G14G15G16G17
+        G18G19G20G21G22G23G24G25G26G27G28G29G30G31G32  0  0
+          0  0  0  0  0  0  0  0  0  0  0  0  0  0  0  0  0
+          0  0  0  0  0  0  0  0  0  0  0  0  0  0  0  0  0
+          0  0  0  0  0  0  0  0  0  0  0  0  0  0  0  0  0
++         2  2  2  3  2  2  2  2  2  2  2  2  2  2  2  2  2
++         2  2  2  2  2  2  1  2  2  2  2  2  1  2  2  0  0
++         0  0  0  0  0  0  0  0  0  0  0  0  0  0  0  0  0
++         0  0  0  0  0  0  0  0  0  0  0  0  0  0  0  0  0
++         0  0  0  0  0  0  0  0  0  0  0  0  0  0  0  0  0
%c G  cc GPS ccc cccc cccc cccc cccc ccccc ccccc ccccc ccccc
%c cc cc ccc ccc cccc cccc cccc cccc ccccc ccccc ccccc ccccc
%f  1.2500000  1.025000000  0.00000000000  0.000000000000000
%f  0.0000000  0.000000000  0.00000000000  0.000000000000000
%i    0    0    0    0      0      0      0      0         0
%i    0    0    0    0      0      0      0      0         0
/* FINAL ORBIT COMBINATION FROM WEIGHTED AVERAGE OF:        
/* cod emr esa gfz grg jpl mit ngs sio                      
/* REFERENCED TO IGS TIME (IGST) AND TO WEIGHTED MEAN POLE: 
/* PCV:IGS08_1915 OL/AL:FES2004  NONE     Y  ORB:CMB CLK:CMB
*  2016  9 26  0 45  0.00000000
PG01 -13669.903389  13694.085354  17984.980194     35.202357  6  6  8 114       
PG02  13899.947819  10463.174649 -19712.856667    548.092018  8  8  6  83       
PG03 -22638.510993  13444.205745  -3454.744273    -89.170033  7  7  7 130       
PG04  21648.763403  15110.892192   4044.151156 999999.999999
PG05  22527.773479    381.466007 -14296.637174    -88.628107  8  6  8 108       
PG06   7692.546161  21563.168516 -13460.717230    251.303372  6  7  8  93       
PG07  -6357.236832  24933.129970  -5452.464881    424.391904  9  4  7  98       
PG08 -21377.719459  -1224.418522  15793.157860    -33.178686  6  6  8 119       
PG09  -4729.130155  15072.351408 -21367.950833    213.308780  8  6  6 116       
PG10  -3436.010863 -15108.127886  21580.970065   -101.753186  6  8  9  51       
PG11 -14219.272016   8503.311633  20191.150155   -665.218631  8  5  7 123       
PG12  24002.082775 -11008.541317  -1612.223702    388.892007  8  8  5 105       
PG13  22251.622314  10730.257379   9539.725785    -45.860690  8  5  5 105       
PG14 -19026.550557 -18386.337838   3395.442558    -36.951827  8  8  6  99       
PG15  21547.973688   -675.791320  15604.573368   -328.659926  7  7  9  77       
PG16 -22431.175529  -1494.929310 -14548.396183      8.173099  8  8  6  95       
PG17  12071.969352  20118.876246  12964.397884   -201.964363  6  2  6 122       
PG18   8332.975988 -18893.342492  17128.229741    561.239771  5  6  7  81       
PG19  17473.251739  19056.839470   5005.205413   -522.594055  7  5  6 118       
PG20  22709.198334 -13789.846289    459.588250    437.572353  7  5  7 103       
PG21   3429.457403 -25959.215801  -2960.234540   -532.318435  7  6  6 125       
PG22 -24590.284591   9508.705980   3889.670679    235.372176  8  7  8 110       
PG23 -15361.688304   7268.869085 -20299.032862   -191.224258  8  7  5  88       
PG24  14524.589370 -10629.860728  19405.746536    -23.718814  5  6  4 112       
PG25  15923.308115 -17001.491928 -12707.013369   -252.414092  7  4  3  90       
PG26 -14923.560947  -8499.063992 -20268.332125   -476.268923  9  8  4 116       
PG27 -23398.092611 -11628.879681   5221.681055    143.916711  8  8  7 110       
PG28    -98.520684  15601.344846  22122.982457    554.736768  7  5  5 130       
PG29   7693.742253 -12757.737012 -21992.024349    649.774286 10  6  5 107       
PG30   -558.013466  26108.492823   4497.654152    151.812648  6  3  6 100       
PG31  -8489.975475 -19560.194553 -15491.473913    245.935110  7  7  3 121       
PG32 -12722.373033 -19498.977816  12817.068521   -129.524346  7  7  4  85       
*  2016  9 26  1  0  0.00000000
PG01 -13693.411183  11522.735134  19444.270190     35.203394  5  6  7 113       
PG02  13765.842574  12731.893089 -18495.805861    548.087428  7  8  6  69       
PG03 -22963.482402  13321.726274   -612.732145    -89.171842  7  7  6 126       
PG04  21721.503251  15454.759290   1210.724618 999999.999999
PG05  21089.886197   1369.195343 -16283.132177    -88.625557  8  7  7  95       
PG06   7429.458496  22958.075639 -11094.956914    251.307927  5  6  8 102       
PG07  -6566.008568  24108.016609  -8194.254091    424.389197 10  5  7  75       
PG08 -22702.848518  -2266.787916  13685.310345    -33.179451  7  5  8 113       
PG09  -6827.794246  13787.002527 -21667.470208    213.315290  8  6  5 110       
PG10  -1251.612374 -16186.813688  21021.422245   -101.756906  6  7  9  56       
PG11 -15062.006441   6184.435540  20415.534121   -665.219579  8  5  7 115       
PG12  24080.394444 -10839.970933   1313.819701    388.892208  8  8  5 109       
PG13  22853.726427  11502.496162   6871.335303    -45.862777  8  5  5 106       
PG14 -18477.507262 -18258.253885   6177.691102    -36.953741  7  8  6 107       
PG15  22911.784027    342.876877  13590.859677   -328.661027  7  6  9  83       
PG16 -20862.501003  -2269.642295 -16614.457039      8.174884  7  8  6 105       
PG17  10725.855048  19338.215249  15186.362923   -201.963652  5  2  6 125       
PG18  10000.161496 -19569.017774  15300.980366    561.242357  5  6  7 101       
PG19  16724.154469  18768.488754   7780.420117   -522.593912  6  5  6 116       
PG20  22819.253730 -13446.865822  -2322.650331    437.574021  7  5  7 120       
PG21   3761.196429 -25368.732294  -5721.098003   -532.318267  7  6  6 126       
PG22 -24256.384876   8931.583477   6577.472295    235.362776  8  7  7 122       
PG23 -17248.658480   5954.407419 -19233.069937   -191.225351  8  8  4  92       
PG24  14597.113333  -8325.783938  20463.692393    -23.718571  5  7  4 112       
PG25  17162.395890 -17431.642484 -10230.398013   -252.420259  7  5  3  85       
PG26 -12864.694230  -9672.894358 -21130.618409   -476.275063  9  8  4 113       
PG27 -23657.484473 -12037.413188   2396.729418    143.921077  8  8  7  98       
PG28  -2276.134179  16477.070418  21330.756055    554.739350  7  4  5 135       
PG29   9728.455876 -11286.504411 -21988.047860    649.773243  9  6  4 104       
PG30   -886.549598  26429.185996   1684.988901    151.813941  6  3  6 109       
PG31  -8159.924637 -21215.327616 -13321.901574    245.933169  8  7  3 113       
PG32 -11272.723479 -18817.914361  15005.524200   -129.537639  6  7  4 101       
*  2016  9 26  1 15  0.00000000
PG01 -13831.035977   9209.998443  20563.890085     35.204526  5  6  6 115       
PG02  13735.480741  14841.300834 -16952.359862    548.082824  6  8  6  87       
PG03 -23017.077686  13051.734287   2239.833573    -89.173709  7  7  6 130       
PG04  21551.360151  15608.910786  -1643.226137 999999.999999
PG05  19525.857526   2536.827596 -17993.142584    -88.623203  8  7  7  94       
PG06   7236.105225  24086.084875  -8538.214979    251.312395  4  5  7  90       
PG07  -6814.240715  22988.582365 -10790.715987    424.386517 10  5  7  84       
PG08 -23860.820703  -3116.846914  11343.137904    -33.180436  7  5  8 115       
PG09  -9000.582799  12604.554467 -21594.745633    213.321825  8  6  4 106       
PG10    802.608130 -17334.867678  20100.189124   -101.760623  6  7  9  63       
PG11 -15999.271310   3897.061435  20270.339183   -665.220275  8  6  6 114       
PG12  23873.764690 -10520.263437   4216.927508    388.892850  8  8  6 107       
PG13  23244.614992  12059.211677   4083.754459    -45.864568  7  5  5 102       
PG14 -17668.368062 -17988.297910   8855.301994    -36.955422  6  7  5  98       
PG15  24105.554052   1189.092688  11345.363370   -328.662817  8  6  8  90       
PG16 -19146.503538  -3231.779160 -18401.131097      8.177035  7  8  6 104       
PG17   9140.744558  18509.984354  17154.666119   -201.962718  4  2  6 124       
PG18  11455.967382 -20205.104399  13216.802304    561.245856  5  6  6 100       
PG19  15703.908100  18344.644542  10417.944709   -522.593130  5  5  6 124       
PG20  22692.020040 -12929.600782  -5065.052915    437.575866  7  5  7 117       
PG21   4139.183071 -24482.602838  -8380.210798   -532.318588  7  6  6 130       
PG22 -23701.243233   8182.457395   9153.501914    235.353509  8  7  7 119       
PG23 -19072.915374   4806.301055 -17834.326724   -191.226788  8  8  4  88       
PG24  14787.541690  -5930.042357  21166.294380    -23.718796  4  7  4 110       
PG25  18126.925387 -17779.726004  -7576.837647   -252.426431  7  5  3  85       
PG26 -10803.481023 -10992.523994 -21629.409368   -476.281227  9  8  4 111       
PG27 -23657.637503 -12275.366504   -469.056921    143.925456  8  8  7 100       
PG28  -4306.108886  17431.446444  20191.008923    554.741867  7  4  5 136       
PG29  11822.586804  -9940.780096 -21605.784316    649.771937  9  6  4 108       
PG30  -1181.342549  26445.874669  -1156.880884    151.815278  6  3  6 106       
PG31  -7922.338978 -22624.535606 -10917.465364    245.931476  8  6  3 104       
PG32  -9585.786592 -18100.340051  16936.241234   -129.550996  6  7  4  98       
EOF
